ONEWEB-0118             
1 47264U 20100G   23229.41182616 -.00000206  00000+0 -60703-3 0  9991
2 47264  87.9022 196.3094 0002362  67.5150 292.6228 13.12442186128994
ONEWEB-0119             
1 47265U 20100H   23229.66807756  .00000381  00000+0  10225-2 0  9993
2 47265  87.9021 196.2961 0002084  87.9538 272.1829 13.12442607129004
ONEWEB-0120             
1 47266U 20100J   23228.40272914 -.00000361  00000+0 -10400-2 0  9992
2 47266  87.9021 196.5349 0002181  79.2335 280.9039 13.12443777128867
ONEWEB-0121             
1 47267U 20100K   23228.46096683 -.00000022  00000+0 -96164-4 0  9993
2 47267  87.9025 196.5247 0001952  88.7924 271.3428 13.12443339128784
ONEWEB-0122             
1 47268U 20100L   23229.44570875  .00000226  00000+0  59404-3 0  9992
2 47268  87.9026 196.3334 0002257  86.6356 273.5031 13.12440043128824
ONEWEB-0123             
1 47269U 20100M   23229.67017853  .00000386  00000+0  10383-2 0  9999
2 47269  87.9021 196.2944 0002082  83.9010 276.2356 13.12444310128998
ONEWEB-0124             
1 47270U 20100N   23229.65747876  .00000268  00000+0  70895-3 0  9998
2 47270  87.9022 196.2937 0001952  94.1545 265.9807 13.12442332128870
ONEWEB-0125             
1 47271U 20100P   23229.40546866 -.00000336  00000+0 -96930-3 0  9994
2 47271  87.9041 196.3660 0001712  77.6089 282.5231 13.12442061128908
